<?xml version="1.0" encoding="UTF-8"?>
<kml xmlns="http://www.opengis.net/kml/2.2" xmlns:gx="http://www.google.com/kml/ext/2.2" xmlns:kml="http://www.opengis.net/kml/2.2" xmlns:atom="http://www.w3.org/2005/Atom">
<Document>
	<name>Adsız Yol.kml</name>
	<StyleMap id="m_ylw-pushpin">
		<Pair>
			<key>normal</key>
			<styleUrl>#s_ylw-pushpin</styleUrl>
		</Pair>
		<Pair>
			<key>highlight</key>
			<styleUrl>#s_ylw-pushpin_hl</styleUrl>
		</Pair>
	</StyleMap>
	<Style id="s_ylw-pushpin">
		<IconStyle>
			<scale>1.1</scale>
			<Icon>
				<href>http://maps.google.com/mapfiles/kml/pushpin/ylw-pushpin.png</href>
			</Icon>
			<hotSpot x="20" y="2" xunits="pixels" yunits="pixels"/>
		</IconStyle>
	</Style>
	<Style id="s_ylw-pushpin_hl">
		<IconStyle>
			<scale>1.3</scale>
			<Icon>
				<href>http://maps.google.com/mapfiles/kml/pushpin/ylw-pushpin.png</href>
			</Icon>
			<hotSpot x="20" y="2" xunits="pixels" yunits="pixels"/>
		</IconStyle>
	</Style>
	<Placemark>
		<name>Adsız Yol</name>
		<styleUrl>#m_ylw-pushpin</styleUrl>
		<LineString>
			<tessellate>1</tessellate>
			<coordinates>
				28.75656662011524,41.20858744003245,0 28.75565592600248,41.20677830363903,0 28.75451554645501,41.19965006840222,0 28.75527951908715,41.19053859950304,0 28.75727228953173,41.18614794375625,0 28.76926333257451,41.18566673517662,0 28.77137339792574,41.18553746889767,0 28.7878237395633,41.18398119969407,0 28.78981706924102,41.19237430104619,0 28.7853879105338,41.20330457950605,0 28.78231312829194,41.20429831012093,0 28.77572024850746,41.20551643658674,0 28.76833028917443,41.20598026035275,0 28.75985125886523,41.20624813231498,0 28.7564456731753,41.20432896363871,0 28.75668081638425,41.20004682029415,0 28.76606769397659,41.19199233229567,0 28.77916351213122,41.18878327773196,0 28.77951500021105,41.18876092908396,0 28.78194817059906,41.19153531105476,0 28.78244583060788,41.19283607212986,0 28.78256307346474,41.19389405466693,0 28.78262170533428,41.19442300525552,0 28.78270965278175,41.19521640376975,0 28.78029066988941,41.20202783807934,0 28.77967558476554,41.20286614938524,0 28.77202603811465,41.20734800578749,0 28.75914803505679,41.20949209465918,0 28.75407104631567,41.20527759937887,0 28.75486710174253,41.19962797416835,0 28.76234184686761,41.19355790249198,0 28.77679291926999,41.18973008510059,0 28.78068822936733,41.18975042393891,0 28.77770482199326,41.19473035019038,0 28.76864974363815,41.19929529588998,0 28.76137304164135,41.20082002222831,0 28.75767729886052,41.19945105200087,0 28.75583455815977,41.19556795304516,0 28.76049375321881,41.19287376080545,0 28.76184392479546,41.19225648543085,0 28.76325096670644,41.1921675681212,0 28.7744512908984,41.19094028849865,0 28.78124595439309,41.19157902124995,0 28.77831948312478,41.19389266434165,0 28.77761675696627,41.1939365368743,0 28.77559611789111,41.19486209143543,0 28.77383812842409,41.19497190143475,0 28.77210893396897,41.19534646882991,0 28.77108292541507,41.19567715549346,0 28.77005672118562,41.19600789862563,0 28.75923192621957,41.1974865567402,0 28.75738626076412,41.19680297790904,0 28.75709446899947,41.19415557279021,0 
			</coordinates>
		</LineString>
		<atom:link rel="app" href="https://www.google.com/earth/about/versions/#earth-pro" title="Google Earth Pro 7.3.7.1155"></atom:link>
	</Placemark>
</Document>
</kml>
