<?xml version="1.0" encoding="UTF-8"?>
<kml xmlns="http://www.opengis.net/kml/2.2" xmlns:gx="http://www.google.com/kml/ext/2.2" xmlns:kml="http://www.opengis.net/kml/2.2" xmlns:atom="http://www.w3.org/2005/Atom">
<Document>
	<name>Adsız Yol.kml</name>
	<StyleMap id="m_ylw-pushpin">
		<Pair>
			<key>normal</key>
			<styleUrl>#s_ylw-pushpin</styleUrl>
		</Pair>
		<Pair>
			<key>highlight</key>
			<styleUrl>#s_ylw-pushpin_hl</styleUrl>
		</Pair>
	</StyleMap>
	<Style id="s_ylw-pushpin">
		<IconStyle>
			<scale>1.1</scale>
			<Icon>
				<href>http://maps.google.com/mapfiles/kml/pushpin/ylw-pushpin.png</href>
			</Icon>
			<hotSpot x="20" y="2" xunits="pixels" yunits="pixels"/>
		</IconStyle>
	</Style>
	<Style id="s_ylw-pushpin_hl">
		<IconStyle>
			<scale>1.3</scale>
			<Icon>
				<href>http://maps.google.com/mapfiles/kml/pushpin/ylw-pushpin.png</href>
			</Icon>
			<hotSpot x="20" y="2" xunits="pixels" yunits="pixels"/>
		</IconStyle>
	</Style>
	<Placemark>
		<name>Adsız Yol</name>
		<styleUrl>#m_ylw-pushpin</styleUrl>
		<LineString>
			<tessellate>1</tessellate>
			<coordinates>
				28.99745982642393,41.2300505963064,0 28.99745937029226,41.23001752112182,0 28.99748706783121,41.22954040532391,0 28.9974799808017,41.22917070717026,0 28.99757443396955,41.22734066351778,0 28.9976043312964,41.22719289414744,0 28.99774716229437,41.22626542185667,0 28.99795335677192,41.22552266112557,0 28.99803765027836,41.22514133950018,0 28.9980337613701,41.22500575032203,0 28.99811681687933,41.22463315200523,0 28.99816969264712,41.22434809262544,0 28.99824473533412,41.2238305634224,0 28.99828147024859,41.22321928132726,0 28.99833899914861,41.22251595439618,0 28.99835120867878,41.22217539390254,0 28.99833286191469,41.22181283417808,0 28.99834052509251,41.22141607786549,0 28.9983327784034,41.22071760938988,0 28.99828468519966,41.21994786426942,0 28.99822788556518,41.21941201538491,0 28.9981101406307,41.21917731102945,0 28.99793563449791,41.21879659208738,0 28.99757958934845,41.21843387805693,0 28.99721338042185,41.21870194916877,0 28.99702966896434,41.21895096146078,0 28.99681677173865,41.21929472224165,0 28.99668255190775,41.21969735510292,0 28.99651766931045,41.22015359706123,0 28.99613199318739,41.2224258392743,0 28.9956844857777,41.2243635432099,0 28.99540018450038,41.22589566653849,0 28.99532792100058,41.22624376451693,0 28.99532237058885,41.2264992762055,0 28.99525173417171,41.22677140020259,0 28.99520908625531,41.22724425161862,0 28.99520232826347,41.22755656594725,0 28.99529640647243,41.22782082850976,0 28.99555755069434,41.22812748085524,0 28.99615324089638,41.22869893144824,0 28.99700254290561,41.22927902865479,0 28.99807019490355,41.22947398264872,0 28.99845051370412,41.22954859664213,0 28.99883310646436,41.22966040255799,0 28.9992175281528,41.22979601496767,0 28.99943172210959,41.22996405399296,0 28.9995066436552,41.23007985249756,0 28.99949800122049,41.22987766551577,0 28.99948281168694,41.22955232095944,0 28.99945070974919,41.22894194255397,0 28.99946770864776,41.22810039982149,0 28.99953740962253,41.22484407060535,0 28.99944217869721,41.22332520285986,0 28.9981752226714,41.22361174939753,0 28.99811527270393,41.2236491100857,0 28.99624201004124,41.22431276148438,0 29.00024376965178,41.22459501855662,0 28.99805055514623,41.22140335783943,0 29.00031689673759,41.21970770293053,0 28.99776664118769,41.22326327989114,0 28.99791370110631,41.22647687282015,0 
			</coordinates>
		</LineString>
		<atom:link rel="app" href="https://www.google.com/earth/about/versions/#earth-pro" title="Google Earth Pro 7.3.7.1155"></atom:link>
	</Placemark>
</Document>
</kml>
