<?xml version="1.0" encoding="UTF-8"?>
<kml xmlns="http://www.opengis.net/kml/2.2" xmlns:gx="http://www.google.com/kml/ext/2.2" xmlns:kml="http://www.opengis.net/kml/2.2" xmlns:atom="http://www.w3.org/2005/Atom">
<Document>
	<name>Adsız Yol.kml</name>
	<StyleMap id="m_ylw-pushpin">
		<Pair>
			<key>normal</key>
			<styleUrl>#s_ylw-pushpin</styleUrl>
		</Pair>
		<Pair>
			<key>highlight</key>
			<styleUrl>#s_ylw-pushpin_hl</styleUrl>
		</Pair>
	</StyleMap>
	<Style id="s_ylw-pushpin">
		<IconStyle>
			<scale>1.1</scale>
			<Icon>
				<href>http://maps.google.com/mapfiles/kml/pushpin/ylw-pushpin.png</href>
			</Icon>
			<hotSpot x="20" y="2" xunits="pixels" yunits="pixels"/>
		</IconStyle>
	</Style>
	<Style id="s_ylw-pushpin_hl">
		<IconStyle>
			<scale>1.3</scale>
			<Icon>
				<href>http://maps.google.com/mapfiles/kml/pushpin/ylw-pushpin.png</href>
			</Icon>
			<hotSpot x="20" y="2" xunits="pixels" yunits="pixels"/>
		</IconStyle>
	</Style>
	<Placemark>
		<name>Adsız Yol</name>
		<styleUrl>#m_ylw-pushpin</styleUrl>
		<LineString>
			<tessellate>1</tessellate>
			<coordinates>
				28.89017585757773,41.21613232564352,0 28.89015741591772,41.21587379645158,0 28.89015630026596,41.21455652069564,0 28.89049269537367,41.2126725195933,0 28.89053269300826,41.21042651092468,0 28.89118578837459,41.20754216980644,0 28.89180860350498,41.20449815659855,0 28.89225982142375,41.2020107722047,0 28.89286039250545,41.19952487710732,0 28.89313321957227,41.1979325510665,0 28.89380102990314,41.19767442975429,0 28.89479104421797,41.19794625689467,0 28.89622358149206,41.19823117248625,0 28.89872811238209,41.19849088000237,0 28.90168049084618,41.1986052733147,0 28.90403512382857,41.19872802832411,0 28.9059564962194,41.19873053364597,0 28.90719166608871,41.1987311203836,0 28.90752824202379,41.19899647795096,0 28.90764800156279,41.19966354264907,0 28.90793225781709,41.20085894421243,0 28.90830481511065,41.20256750305543,0 28.90846643201864,41.20454572941086,0 28.90842430988268,41.20718890564376,0 28.9078330930661,41.21036703770586,0 28.9069600872542,41.21418776859817,0 28.90600508702464,41.21731668219763,0 28.90547846434606,41.21876554867144,0 28.90514782502122,41.21994241568495,0 28.90459135464174,41.22074253775722,0 28.904222139206,41.22048396845709,0 28.90369276227671,41.2200901035222,0 28.90251312345348,41.21981041193735,0 28.90132689474682,41.21979591348995,0 28.89930485897981,41.21963630666734,0 28.89644037978457,41.21946713322617,0 28.89393863900714,41.21947915752158,0 28.89089675509758,41.21941948015645,0 28.88815359456641,41.21913544044612,0 28.88635797303886,41.21888270772269,0 28.88533854935895,41.21834571348527,0 28.88494017472905,41.21783173172589,0 28.88492388205064,41.21770447241735,0 28.88572511993294,41.21706747079235,0 28.8872883181144,41.21615065425838,0 28.88886555470661,41.21536214895769,0 28.89070167614394,41.21455204943486,0 28.89257448998034,41.21399516064874,0 28.89447786786784,41.21343090465189,0 28.89689439978657,41.21317937914702,0 28.89870368417717,41.2130811735857,0 28.90082805624929,41.21347182688478,0 28.90122625574683,41.21451084096849,0 28.90071175392352,41.21477026551059,0 28.8997987367986,41.21399106927917,0 28.8985301633083,41.21215944594426,0 28.89627668557497,41.20728216404979,0 28.89430407033395,41.20110120141145,0 28.89376579691761,41.19702013389506,0 28.89454906281911,41.19597808685797,0 28.89518100354162,41.19611724521474,0 28.89622988691412,41.19664651867486,0 28.897449971952,41.19809881688929,0 28.89819468983386,41.1994111008671,0 28.89897016630666,41.20164418938225,0 28.8999659387244,41.20517830030755,0 28.90015653431163,41.20859627675541,0 28.89938789522727,41.21269145151341,0 28.89817347725315,41.21697730194737,0 28.89659284118192,41.2203930199279,0 28.89503118131544,41.22301426801243,0 28.89446842592909,41.22355176034846,0 28.89412376627731,41.22302537975562,0 28.8934148594829,41.22092529375416,0 28.89249061151996,41.21849415868073,0 28.8923462662764,41.21795817318042,0 28.89224005844451,41.21346454026149,0 28.89306895638258,41.2098841596951,0 28.8952401424865,41.20675162166896,0 28.89846755381711,41.20480023931001,0 28.90263538462239,41.20319961029308,0 28.90576048171196,41.20241758804336,0 28.90796632648282,41.20256490268336,0 28.90817470202308,41.20361171814267,0 28.90790738283873,41.20573768788759,0 28.90575044543033,41.2095252931439,0 28.90235521386673,41.21296122364145,0 28.89983029235668,41.21556034487804,0 28.89833865277397,41.21645478729663,0 28.89727543941386,41.2165890929077,0 28.89661728825071,41.21513098277972,0 28.89554531216103,41.21014275227099,0 28.8947140006626,41.20425116429954,0 28.89683067038266,41.20204212877526,0 28.90020263412912,41.20164419649836,0 28.90398994585695,41.20202470571161,0 28.9066287704573,41.20294617176005,0 28.90794365795089,41.2048080064333,0 28.90841926570972,41.20784859943359,0 28.9078343514913,41.21155275969792,0 28.90578112196744,41.21548876987169,0 28.90317070478117,41.21824592590463,0 28.90012491906104,41.21965345138781,0 28.89933978748836,41.21844186125927,0 28.89815822010604,41.21579865068036,0 28.89721130928447,41.21345145791596,0 28.89588890684786,41.20909350749722,0 28.89491917263712,41.20621934599515,0 28.89471330084517,41.20398795863903,0 28.89538763041435,41.20307251551611,0 28.89684314071552,41.20256717694015,0 28.89898872368961,41.20256242978986,0 28.90338888115086,41.20345343729836,0 28.90573015730379,41.20492395055039,0 28.90667376112093,41.20639675612485,0 28.90710154028709,41.20874881612534,0 28.90628644886121,41.21154305279923,0 28.90466551485324,41.21400613879824,0 28.90205411217541,41.21531506516205,0 28.90066366556674,41.21557363423691,0 28.8993361615365,41.21528776177622,0 28.89805978467922,41.21372263726918,0 28.89739568469543,41.21173984033383,0 28.89726549632441,41.2098885802444,0 28.89757811089274,41.20858255913364,0 28.89821804375746,41.20793887739831,0 28.89872044804011,41.20755069550169,0 28.9000082822913,41.20727467251911,0 28.90092227607705,41.20726709716688,0 28.90164952603714,41.20778739399122,0 28.90072545812941,41.20819225542239,0 28.89915567353472,41.20871628112035,0 28.8979239287111,41.20858388764602,0 28.89752604224924,41.20793626430727,0 28.89709639825226,41.20689964736974,0 28.89674373637778,41.20597851260151,0 28.89655078523619,41.20466503913224,0 28.89653445125764,41.20374585337164,0 
			</coordinates>
		</LineString>
		<atom:link rel="app" href="https://www.google.com/earth/about/versions/#earth-pro" title="Google Earth Pro 7.3.7.1155"></atom:link>
	</Placemark>
</Document>
</kml>
