<?xml version="1.0" encoding="UTF-8"?>
<kml xmlns="http://www.opengis.net/kml/2.2" xmlns:gx="http://www.google.com/kml/ext/2.2" xmlns:kml="http://www.opengis.net/kml/2.2" xmlns:atom="http://www.w3.org/2005/Atom">
<Document>
	<name>Adsız Yol.kml</name>
	<StyleMap id="m_ylw-pushpin">
		<Pair>
			<key>normal</key>
			<styleUrl>#s_ylw-pushpin</styleUrl>
		</Pair>
		<Pair>
			<key>highlight</key>
			<styleUrl>#s_ylw-pushpin_hl</styleUrl>
		</Pair>
	</StyleMap>
	<Style id="s_ylw-pushpin">
		<IconStyle>
			<scale>1.1</scale>
			<Icon>
				<href>http://maps.google.com/mapfiles/kml/pushpin/ylw-pushpin.png</href>
			</Icon>
			<hotSpot x="20" y="2" xunits="pixels" yunits="pixels"/>
		</IconStyle>
	</Style>
	<Style id="s_ylw-pushpin_hl">
		<IconStyle>
			<scale>1.3</scale>
			<Icon>
				<href>http://maps.google.com/mapfiles/kml/pushpin/ylw-pushpin.png</href>
			</Icon>
			<hotSpot x="20" y="2" xunits="pixels" yunits="pixels"/>
		</IconStyle>
	</Style>
	<Placemark>
		<name>Adsız Yol</name>
		<styleUrl>#m_ylw-pushpin</styleUrl>
		<LineString>
			<tessellate>1</tessellate>
			<coordinates>
				28.63700569173048,41.27800757706834,0 28.63384828114776,41.26677922841395,0 28.63344912924938,41.26250051572966,0 28.63305370559432,41.2587792818374,0 28.6330672009665,41.25584684428646,0 28.6347785380357,41.25465171653085,0 28.63689923437577,41.25368949045077,0 28.63998771391225,41.25352810895695,0 28.64416881312962,41.25329016164255,0 28.65026517179664,41.25482605611097,0 28.65601134172942,41.25847895153888,0 28.6605468667923,41.26379743536498,0 28.66206688606567,41.26770081614589,0 28.66325205271187,41.27218234086105,0 28.66384100708008,41.27456892693654,0 28.66483726445258,41.27746949139482,0 28.66498820649111,41.27908127096455,0 28.66516573095756,41.28096108600015,0 28.66421096759737,41.28209785602495,0 28.6632713549029,41.28322304406853,0 28.66345512593355,41.2816024446252,0 28.66596548809779,41.27792846021393,0 28.66794434892401,41.27589230941992,0 28.67163516872919,41.27349975966623,0 28.67491921661716,41.27174193613428,0 28.6769429769261,41.27053276911123,0 28.67252889066149,41.27212105850129,0 28.66625473775164,41.27331458937247,0 28.66096778087771,41.27420337869432,0 28.65819767231092,41.27434127114275,0 28.65464408951831,41.2737220839962,0 28.65173938475617,41.27281834001469,0 28.65018838476137,41.27185387690676,0 28.65082133497917,41.27100730113949,0 28.65489897247893,41.26999048170114,0 28.66323569748404,41.26841903369897,0 28.67168190741773,41.2667753637703,0 28.67905499672195,41.26577128074018,0 28.68543305884683,41.26507006080899,0 28.68789412139763,41.2649231685521,0 
			</coordinates>
		</LineString>
		<atom:link rel="app" href="https://www.google.com/earth/about/versions/#earth-pro" title="Google Earth Pro 7.3.7.1155"></atom:link>
	</Placemark>
</Document>
</kml>
