<?xml version="1.0" encoding="UTF-8"?>
<kml xmlns="http://www.opengis.net/kml/2.2" xmlns:gx="http://www.google.com/kml/ext/2.2" xmlns:kml="http://www.opengis.net/kml/2.2" xmlns:atom="http://www.w3.org/2005/Atom">
<Document>
	<name>Adsız Yol.kml</name>
	<StyleMap id="m_ylw-pushpin">
		<Pair>
			<key>normal</key>
			<styleUrl>#s_ylw-pushpin</styleUrl>
		</Pair>
		<Pair>
			<key>highlight</key>
			<styleUrl>#s_ylw-pushpin_hl</styleUrl>
		</Pair>
	</StyleMap>
	<Style id="s_ylw-pushpin">
		<IconStyle>
			<scale>1.1</scale>
			<Icon>
				<href>http://maps.google.com/mapfiles/kml/pushpin/ylw-pushpin.png</href>
			</Icon>
			<hotSpot x="20" y="2" xunits="pixels" yunits="pixels"/>
		</IconStyle>
	</Style>
	<Style id="s_ylw-pushpin_hl">
		<IconStyle>
			<scale>1.3</scale>
			<Icon>
				<href>http://maps.google.com/mapfiles/kml/pushpin/ylw-pushpin.png</href>
			</Icon>
			<hotSpot x="20" y="2" xunits="pixels" yunits="pixels"/>
		</IconStyle>
	</Style>
	<Placemark>
		<name>Adsız Yol</name>
		<styleUrl>#m_ylw-pushpin</styleUrl>
		<LineString>
			<tessellate>1</tessellate>
			<coordinates>
				28.93511292934065,41.14781054867788,0 28.93491567628922,41.14700538209121,0 28.93491467155842,41.14687253705397,0 28.93491105656539,41.14620905201389,0 28.93550318236838,41.14518544065185,0 28.93754376276466,41.14366056606851,0 28.94186048441869,41.14125021903695,0 28.94693297820631,41.13925345078316,0 28.95243007897885,41.13773003262416,0 28.95797739026164,41.13675724301927,0 28.96201112389405,41.13636318508651,0 28.96524660824409,41.13644900593543,0 28.96768017381825,41.13669526700466,0 28.97016317538628,41.13765675632558,0 28.97266892518104,41.13904499496185,0 28.97457745535058,41.14034755320779,0 28.97562945090181,41.14153766089261,0 28.97613795442264,41.14244147182426,0 28.97613309267989,41.14322625280347,0 28.97597975971791,41.14430657853191,0 28.97547994020435,41.14512359836356,0 28.97352479363519,41.14666722124723,0 28.97021527779631,41.14838919529453,0 28.96778999191053,41.14919416299346,0 28.96412715991716,41.14998433917899,0 28.96101501951679,41.15039882396359,0 28.95749667070828,41.15051011355052,0 28.95264256192539,41.15029394516244,0 28.94924208629245,41.14972263006488,0 28.9471041821633,41.1487771904501,0 28.94639449478628,41.14771412826234,0 28.94617977040061,41.14650192220527,0 28.94701992825506,41.14539591862038,0 28.9482699110324,41.14435660409215,0 28.95059034660001,41.14321409972662,0 28.95406523858335,41.14252822193681,0 28.95904979634432,41.14179829874385,0 28.96508722663005,41.14187460415914,0 28.96965121564712,41.14255163731827,0 28.97511595834416,41.14392172691007,0 28.97771487855925,41.14534595568828,0 28.97842416664502,41.14707134438078,0 28.97739272933016,41.14906518923846,0 28.97513912521055,41.15092263983137,0 28.97061649813998,41.15316877258932,0 28.96416836151131,41.15501083220073,0 28.95975591997033,41.15563712304613,0 28.95506967002827,41.15529411490994,0 28.95281511913421,41.15424997109338,0 28.95137344606047,41.1527753289428,0 28.95115455944258,41.15116775206275,0 28.95123156072395,41.14949499318631,0 28.9516191493052,41.14806736986095,0 28.9524671435785,41.14673216679773,0 28.95475500115279,41.14581843632349,0 28.95945541729127,41.14461544934085,0 28.96544829196342,41.14412635422557,0 28.97424206942795,41.14457957718535,0 28.98052017483445,41.14575307095448,0 28.98405221522885,41.1469943892744,0 28.98422658579726,41.14804685494945,0 28.98228526123295,41.14946492964819,0 28.97427570465263,41.15224569356572,0 28.96660637923884,41.15408906965481,0 28.96030744239538,41.15473234827819,0 28.95670395897874,41.15466838787568,0 28.95515140515447,41.15375652682545,0 28.95516636080551,41.1519217955267,0 28.95623523634369,41.15022175293134,0 28.95817837360998,41.14799906691622,0 28.96092424264411,41.14638446902665,0 28.96434258195433,41.14539789017749,0 28.97105293748564,41.14466497474769,0 28.97615727118699,41.14470425449183,0 28.98175855503838,41.14551054511191,0 28.98685874140193,41.14688651538737,0 28.98878445163387,41.14847669513559,0 28.98929790730279,41.14977470710767,0 28.98807695714492,41.15095922411646,0 28.98262310655064,41.1532701845959,0 28.97656568521851,41.15502680789442,0 28.97028875714576,41.1560765917567,0 28.96505042099309,41.15646316687378,0 28.96186884776533,41.15577998436407,0 28.96014064682874,41.15434221830112,0 28.95851410617835,41.15233439825381,0 28.95749259296431,41.15037594444743,0 28.95690203789519,41.14862086240538,0 28.95688740852653,41.14716163196991,0 28.95742166460309,41.14650896270776,0 28.95954532013883,41.14652952310376,0 28.96459195959036,41.1465149346048,0 28.96792194330132,41.14678778382842,0 28.97316755800845,41.14744979633147,0 28.97618166914241,41.14828668712633,0 28.97564689465739,41.14866982642076,0 28.97335702558256,41.1493087285094,0 28.96903008339077,41.14999904862673,0 28.96528588841603,41.15033317709388,0 28.96291825218871,41.15038835703216,0 28.96170784426736,41.1501324744295,0 28.96153198948876,41.14986869758484,0 
			</coordinates>
		</LineString>
		<atom:link rel="app" href="https://www.google.com/earth/about/versions/#earth-pro" title="Google Earth Pro 7.3.7.1155"></atom:link>
	</Placemark>
</Document>
</kml>
