<?xml version="1.0" encoding="UTF-8"?>
<kml xmlns="http://www.opengis.net/kml/2.2" xmlns:gx="http://www.google.com/kml/ext/2.2" xmlns:kml="http://www.opengis.net/kml/2.2" xmlns:atom="http://www.w3.org/2005/Atom">
<Document>
	<name>Adsız Yol.kml</name>
	<StyleMap id="m_ylw-pushpin">
		<Pair>
			<key>normal</key>
			<styleUrl>#s_ylw-pushpin</styleUrl>
		</Pair>
		<Pair>
			<key>highlight</key>
			<styleUrl>#s_ylw-pushpin_hl</styleUrl>
		</Pair>
	</StyleMap>
	<Style id="s_ylw-pushpin">
		<IconStyle>
			<scale>1.1</scale>
			<Icon>
				<href>http://maps.google.com/mapfiles/kml/pushpin/ylw-pushpin.png</href>
			</Icon>
			<hotSpot x="20" y="2" xunits="pixels" yunits="pixels"/>
		</IconStyle>
	</Style>
	<Style id="s_ylw-pushpin_hl">
		<IconStyle>
			<scale>1.3</scale>
			<Icon>
				<href>http://maps.google.com/mapfiles/kml/pushpin/ylw-pushpin.png</href>
			</Icon>
			<hotSpot x="20" y="2" xunits="pixels" yunits="pixels"/>
		</IconStyle>
	</Style>
	<Placemark>
		<name>Adsız Yol</name>
		<styleUrl>#m_ylw-pushpin</styleUrl>
		<LineString>
			<tessellate>1</tessellate>
			<coordinates>
				28.94384026743622,41.20925033065849,0 28.94438342117504,41.20884940054008,0 28.9452511790698,41.20845922737657,0 28.94611277255134,41.20820089744632,0 28.94701576191902,41.2079276647757,0 28.94827716682792,41.20764975393142,0 28.94933565292538,41.20764653478666,0 28.95110092702119,41.20737744972601,0 28.95371767049552,41.20724740685697,0 28.95647403717053,41.20726363505299,0 28.95887453441872,41.20767831734356,0 28.96130361796365,41.20821342103546,0 28.96303992877084,41.20874505343477,0 28.9644178502258,41.20928402646892,0 28.96496998856687,41.20992117870685,0 28.96516065884809,41.21070210917431,0 28.96517170751267,41.21135152940804,0 28.96515635395647,41.21214761572169,0 28.96443376858881,41.21308165100148,0 28.96250198038343,41.21426965612815,0 28.95972079662559,41.21504639993505,0 28.95783658162373,41.21502240585327,0 28.95662046561661,41.21501811190539,0 28.95506893319873,41.21448091370313,0 28.95438872423302,41.21368421562887,0 28.95405343753191,41.2126279849944,0 28.95456448098501,41.21197921852037,0 28.95595337862887,41.21119787800724,0 28.95802629362804,41.21094703868334,0 28.96076253682816,41.21097905452143,0 28.96446623484237,41.21135500457081,0 28.968855614852,41.21278275403387,0 28.97059019647599,41.2138400858988,0 28.97111392997624,41.21462830492936,0 
			</coordinates>
		</LineString>
		<atom:link rel="app" href="https://www.google.com/earth/about/versions/#earth-pro" title="Google Earth Pro 7.3.7.1155"></atom:link>
	</Placemark>
</Document>
</kml>
