<?xml version="1.0" encoding="UTF-8"?>
<kml xmlns="http://www.opengis.net/kml/2.2" xmlns:gx="http://www.google.com/kml/ext/2.2" xmlns:kml="http://www.opengis.net/kml/2.2" xmlns:atom="http://www.w3.org/2005/Atom">
<Document>
	<name>Adsız Yol.kml</name>
	<StyleMap id="m_ylw-pushpin">
		<Pair>
			<key>normal</key>
			<styleUrl>#s_ylw-pushpin</styleUrl>
		</Pair>
		<Pair>
			<key>highlight</key>
			<styleUrl>#s_ylw-pushpin_hl</styleUrl>
		</Pair>
	</StyleMap>
	<Style id="s_ylw-pushpin">
		<IconStyle>
			<scale>1.1</scale>
			<Icon>
				<href>http://maps.google.com/mapfiles/kml/pushpin/ylw-pushpin.png</href>
			</Icon>
			<hotSpot x="20" y="2" xunits="pixels" yunits="pixels"/>
		</IconStyle>
	</Style>
	<Style id="s_ylw-pushpin_hl">
		<IconStyle>
			<scale>1.3</scale>
			<Icon>
				<href>http://maps.google.com/mapfiles/kml/pushpin/ylw-pushpin.png</href>
			</Icon>
			<hotSpot x="20" y="2" xunits="pixels" yunits="pixels"/>
		</IconStyle>
	</Style>
	<Placemark>
		<name>Adsız Yol</name>
		<styleUrl>#m_ylw-pushpin</styleUrl>
		<LineString>
			<tessellate>1</tessellate>
			<coordinates>
				28.89828929851138,41.23924542524693,0 28.89872625499339,41.23844234718411,0 28.90008283652958,41.23593273288431,0 28.90117684221198,41.23361780864597,0 28.90217719959124,41.23151101022986,0 28.90301340030145,41.22930451105763,0 28.90369334340725,41.22751071535046,0 28.90439208498914,41.22577749227552,0 28.90526501333535,41.22404971681381,0 28.90608562071338,41.22273133105718,0 28.90677082532583,41.22165224947763,0 28.90735605700661,41.2207345289444,0 28.90804021174383,41.21964325428767,0 28.90853608550424,41.21892100179245,0 28.90905045187644,41.21810541768598,0 28.90971420726954,41.21670654951819,0 28.91052589524496,41.21512709354224,0 28.91162632231337,41.21282598659943,0 28.91239807422944,41.21100193537657,0 28.91313529367133,41.2090283583159,0 28.91337219679635,41.20788188245371,0 28.91361028451031,41.20674334929991,0 28.91386499375257,41.20549627695767,0 28.91410518356717,41.20392239903177,0 28.91429253217663,41.20257252573603,0 28.91443081816693,41.20150801736103,0 28.91443461389105,41.20074530131574,0 28.91451156994666,41.20003118203461,0 28.91456768169513,41.19940686597276,0 28.91435117895815,41.19901907860929,0 28.91411060410603,41.19979545044112,0 28.91375054779918,41.2011419128326,0 28.91305839791871,41.20373512632194,0 28.91222807225106,41.20659321727956,0 28.9113484331762,41.20909701895183,0 28.91044751341391,41.21175751891773,0 28.90963310366224,41.2142608592015,0 28.9089707248733,41.21617384353356,0 28.90856711363788,41.21757799177665,0 28.90860518907461,41.21819780293477,0 28.90901371288998,41.21756780881463,0 28.90959076744424,41.21646804646631,0 28.91050628653534,41.21521774821986,0 28.91146779817955,41.21430040519471,0 28.91232295924645,41.21384230431518,0 28.91348797667006,41.21341297564565,0 28.91448217764982,41.21337693467581,0 28.91490329416494,41.21369867600999,0 28.9151092770149,41.21434730599129,0 28.91520081998202,41.21523157316598,0 28.91516982551006,41.2158263366205,0 28.91486681328512,41.21652972866586,0 28.91445636103002,41.21604593911117,0 28.91382524156661,41.21500675820578,0 28.91326726924724,41.21369123089734,0 28.91254746055591,41.21197630811883,0 28.91210683891701,41.21084602782354,0 28.91195427984912,41.20959385785572,0 28.91202046632817,41.20892398139294,0 28.91217129559541,41.20832983813064,0 28.91236409002679,41.20777904708284,0 28.91252174457003,41.20743275280535,0 28.91260686433125,41.20703357665158,0 28.91259240710032,41.20672663786859,0 28.91238613225791,41.20620977157351,0 
			</coordinates>
		</LineString>
		<atom:link rel="app" href="https://www.google.com/earth/about/versions/#earth-pro" title="Google Earth Pro 7.3.7.1155"></atom:link>
	</Placemark>
</Document>
</kml>
