<?xml version="1.0" encoding="UTF-8"?>
<kml xmlns="http://www.opengis.net/kml/2.2" xmlns:gx="http://www.google.com/kml/ext/2.2" xmlns:kml="http://www.opengis.net/kml/2.2" xmlns:atom="http://www.w3.org/2005/Atom">
<Document>
	<name>Adsız Yol.kml</name>
	<StyleMap id="m_ylw-pushpin">
		<Pair>
			<key>normal</key>
			<styleUrl>#s_ylw-pushpin</styleUrl>
		</Pair>
		<Pair>
			<key>highlight</key>
			<styleUrl>#s_ylw-pushpin_hl</styleUrl>
		</Pair>
	</StyleMap>
	<Style id="s_ylw-pushpin">
		<IconStyle>
			<scale>1.1</scale>
			<Icon>
				<href>http://maps.google.com/mapfiles/kml/pushpin/ylw-pushpin.png</href>
			</Icon>
			<hotSpot x="20" y="2" xunits="pixels" yunits="pixels"/>
		</IconStyle>
	</Style>
	<Style id="s_ylw-pushpin_hl">
		<IconStyle>
			<scale>1.3</scale>
			<Icon>
				<href>http://maps.google.com/mapfiles/kml/pushpin/ylw-pushpin.png</href>
			</Icon>
			<hotSpot x="20" y="2" xunits="pixels" yunits="pixels"/>
		</IconStyle>
	</Style>
	<Placemark>
		<name>Adsız Yol</name>
		<styleUrl>#m_ylw-pushpin</styleUrl>
		<LineString>
			<tessellate>1</tessellate>
			<coordinates>
				28.91687984097226,41.20950944588557,0 28.91719522237767,41.20886575283116,0 28.91737014559131,41.20840068728734,0 28.91770889362655,41.20756679338893,0 28.91783743490885,41.20696693094988,0 28.91801279577194,41.20643402899699,0 28.91827637566216,41.20562995849231,0 28.91853498026471,41.20490001905792,0 28.91877927460594,41.20427859176321,0 28.91905984432964,41.20378105069962,0 28.91909701846093,41.20346376622355,0 28.91928248132929,41.20323300240828,0 28.91939824710454,41.20314731444987,0 28.91982784796093,41.20310914674051,0 28.92066932791135,41.20293002312474,0 28.92170324149156,41.20290224734499,0 28.92300943218229,41.20285200603634,0 28.92445787058648,41.20296346460131,0 28.92542214936429,41.20318373764093,0 28.92568329260125,41.20344352426394,0 28.92572296352009,41.20381609836844,0 28.92575688184117,41.20435136557863,0 28.92571547263468,41.20543131295298,0 28.92568385359771,41.2063456894871,0 28.92553683396443,41.20720381647153,0 28.92522002397127,41.20793110651466,0 28.92465291856743,41.20889986624379,0 28.92409550075308,41.20958943430569,0 28.92353385693729,41.21019498385667,0 28.92289183844336,41.21091198343602,0 28.92230560723718,41.21146407727975,0 28.9214953241895,41.2118620938911,0 28.92023638238526,41.21188755472683,0 28.91947516393792,41.21179605252998,0 28.91907661130659,41.21163618463727,0 28.91869674557391,41.21133761460949,0 28.9184282080184,41.21111647744892,0 28.91829241722729,41.21077916905768,0 28.91817117555615,41.21032607207444,0 28.9179366726524,41.20983573241617,0 28.91791580169875,41.20905247181857,0 28.91798755343712,41.20802536706422,0 28.91821178055385,41.20711389842415,0 28.91884568779541,41.20598931405793,0 28.91963809274942,41.20536323008985,0 28.92073934256305,41.20489584481248,0 28.92114966771382,41.20478461489678,0 28.92165730732997,41.20473162411737,0 28.92209813171082,41.20479606601042,0 28.92268639248198,41.20506419636801,0 28.92301300809429,41.2058886166687,0 28.92305184486123,41.2069615198352,0 28.92296683216565,41.20813232581354,0 28.92246300395654,41.20942483978496,0 28.92191635207026,41.21033256451981,0 28.92101560499601,41.21113543428653,0 28.92040533493209,41.21134007307094,0 28.9202561027561,41.21102642147309,0 28.92026052688646,41.21041340290904,0 28.92031710742705,41.20917308897194,0 28.92182510878032,41.20407108628131,0 28.92394127570038,41.20349904213981,0 28.92422001675224,41.2083502467457,0 28.92175046455686,41.21091422293124,0 28.92138135850238,41.21105345308836,0 28.92002312456436,41.21103322768662,0 28.91963892998574,41.21078384079843,0 28.92095866660214,41.20443244239006,0 28.92345872393441,41.20593322270546,0 28.92067384056004,41.20846404365917,0 28.92002941297467,41.20746975061748,0 28.9198743623869,41.20572877128227,0 28.92006633541487,41.2055021858476,0 
			</coordinates>
		</LineString>
		<atom:link rel="app" href="https://www.google.com/earth/about/versions/#earth-pro" title="Google Earth Pro 7.3.7.1155"></atom:link>
	</Placemark>
</Document>
</kml>
