<?xml version="1.0" encoding="UTF-8"?>
<kml xmlns="http://www.opengis.net/kml/2.2" xmlns:gx="http://www.google.com/kml/ext/2.2" xmlns:kml="http://www.opengis.net/kml/2.2" xmlns:atom="http://www.w3.org/2005/Atom">
<Document>
	<name>Adsız Yol.kml</name>
	<StyleMap id="m_ylw-pushpin">
		<Pair>
			<key>normal</key>
			<styleUrl>#s_ylw-pushpin</styleUrl>
		</Pair>
		<Pair>
			<key>highlight</key>
			<styleUrl>#s_ylw-pushpin_hl</styleUrl>
		</Pair>
	</StyleMap>
	<Style id="s_ylw-pushpin">
		<IconStyle>
			<scale>1.1</scale>
			<Icon>
				<href>http://maps.google.com/mapfiles/kml/pushpin/ylw-pushpin.png</href>
			</Icon>
			<hotSpot x="20" y="2" xunits="pixels" yunits="pixels"/>
		</IconStyle>
	</Style>
	<Style id="s_ylw-pushpin_hl">
		<IconStyle>
			<scale>1.3</scale>
			<Icon>
				<href>http://maps.google.com/mapfiles/kml/pushpin/ylw-pushpin.png</href>
			</Icon>
			<hotSpot x="20" y="2" xunits="pixels" yunits="pixels"/>
		</IconStyle>
	</Style>
	<Placemark>
		<name>Adsız Yol</name>
		<styleUrl>#m_ylw-pushpin</styleUrl>
		<LineString>
			<tessellate>1</tessellate>
			<coordinates>
				28.92450487228614,41.2198711891029,0 28.92467054102852,41.21908738000878,0 28.92495168464299,41.21841088539198,0 28.9250972368167,41.21787539191377,0 28.92523991574627,41.21736718804287,0 28.92530775469985,41.21591223263656,0 28.92535373199532,41.21480169384645,0 28.92537098281865,41.21424798130313,0 28.92531505439946,41.21401667710839,0 28.92531708125824,41.21392586594455,0 28.92568362075559,41.2140678694391,0 28.9263559632131,41.21422570963645,0 28.92703057869227,41.21425205542145,0 28.9277643661847,41.21435320448451,0 28.92868538537682,41.21431684612896,0 28.92917601843384,41.21429916718345,0 28.92948451216886,41.21488724691718,0 28.92961941079669,41.21653598812324,0 28.92962954011775,41.21835268477127,0 28.92950448683216,41.21964988833426,0 28.92918155318777,41.22102953070112,0 28.9289174115662,41.22195335084684,0 28.92878465721828,41.22198443402821,0 28.92878486486812,41.22191281016793,0 28.92865605678768,41.22105049485583,0 28.92872560818024,41.22004596489503,0 28.9290511973176,41.21934739251704,0 28.92937266323338,41.21849773845451,0 28.92987801657935,41.21753350333825,0 28.93025268447908,41.2169346607611,0 28.93079723930953,41.21582039795162,0 28.93121127064179,41.21500829636027,0 28.93150077774811,41.21439443294874,0 28.93161121276111,41.21403240981716,0 28.93166465846655,41.21376244603383,0 28.9316578070454,41.21347124946431,0 28.93170767081577,41.21301535812349,0 28.93175929662244,41.21259973450201,0 28.93162279227302,41.21201128057814,0 28.93125979444268,41.21165333019115,0 28.93083511517713,41.21116561173613,0 28.9300566197618,41.21064705354029,0 28.92905516015707,41.21024966092703,0 28.9282388089961,41.20993539229659,0 28.92841501799787,41.2097608886925,0 28.9289391908746,41.20959982728694,0 28.92951930388666,41.20932245858262,0 28.93020831973456,41.20878929858919,0 28.9310685334966,41.20841894892841,0 28.93203014402515,41.20775712913036,0 28.93253648181942,41.20737879648327,0 28.93258578155727,41.20716358898939,0 28.93246367707425,41.20690855703279,0 28.93205615887338,41.20661569684712,0 28.93159527454256,41.20632895550617,0 28.93113676241698,41.20600094898671,0 28.93068171263816,41.20574094145976,0 28.93039672063139,41.20543768739736,0 28.93039481227267,41.20528866426888,0 28.93111092953365,41.20492111504423,0 28.93240550241034,41.20419115700409,0 28.93399277688292,41.2034399118936,0 28.93498338154989,41.20295466860443,0 28.93492267870205,41.2028528381801,0 28.93437466500023,41.20266626788057,0 28.9335620152409,41.20243307190552,0 28.93296506009215,41.2022195700457,0 28.93262775973814,41.2018506232623,0 28.93303794946143,41.20159065767455,0 28.93396264099979,41.20114168670844,0 28.93462582429673,41.20077368322127,0 28.93461922653769,41.2006751945952,0 28.93439864280225,41.20051916657515,0 28.93396445157284,41.2003236311437,0 28.93379750410216,41.2001625021048,0 
			</coordinates>
		</LineString>
		<atom:link rel="app" href="https://www.google.com/earth/about/versions/#earth-pro" title="Google Earth Pro 7.3.7.1155"></atom:link>
	</Placemark>
</Document>
</kml>
