<?xml version="1.0" encoding="UTF-8"?>
<kml xmlns="http://www.opengis.net/kml/2.2" xmlns:gx="http://www.google.com/kml/ext/2.2" xmlns:kml="http://www.opengis.net/kml/2.2" xmlns:atom="http://www.w3.org/2005/Atom">
<Document>
	<name>Adsız Yol.kml</name>
	<StyleMap id="m_ylw-pushpin">
		<Pair>
			<key>normal</key>
			<styleUrl>#s_ylw-pushpin</styleUrl>
		</Pair>
		<Pair>
			<key>highlight</key>
			<styleUrl>#s_ylw-pushpin_hl</styleUrl>
		</Pair>
	</StyleMap>
	<Style id="s_ylw-pushpin">
		<IconStyle>
			<scale>1.1</scale>
			<Icon>
				<href>http://maps.google.com/mapfiles/kml/pushpin/ylw-pushpin.png</href>
			</Icon>
			<hotSpot x="20" y="2" xunits="pixels" yunits="pixels"/>
		</IconStyle>
	</Style>
	<Style id="s_ylw-pushpin_hl">
		<IconStyle>
			<scale>1.3</scale>
			<Icon>
				<href>http://maps.google.com/mapfiles/kml/pushpin/ylw-pushpin.png</href>
			</Icon>
			<hotSpot x="20" y="2" xunits="pixels" yunits="pixels"/>
		</IconStyle>
	</Style>
	<Placemark>
		<name>Adsız Yol</name>
		<styleUrl>#m_ylw-pushpin</styleUrl>
		<LineString>
			<tessellate>1</tessellate>
			<coordinates>
				28.91268534291134,41.23007980091212,0 28.91283491241854,41.22958024890906,0 28.9131357073801,41.22853494351655,0 28.91351035490878,41.22739642495665,0 28.9139768307617,41.22580631309992,0 28.91448657218681,41.22458316462154,0 28.91484307711843,41.22390985934784,0 28.91513302665427,41.22325949579983,0 28.91533747745122,41.22324729147405,0 28.91553861233124,41.22325025037244,0 28.91626626776712,41.2233752660981,0 28.91778100531807,41.22368828860252,0 28.91907035549825,41.224189814102,0 28.92043686584312,41.22470706115168,0 28.92162679168078,41.22448176396829,0 28.92253210483436,41.2242641106722,0 28.92243204763873,41.22476959119375,0 28.92132720338323,41.22757928450143,0 28.91947044222606,41.22996644002715,0 28.91693044154686,41.23287744108325,0 28.9152695492945,41.23472552772252,0 28.91430293347048,41.23524711792934,0 28.91402126999634,41.23511790876393,0 28.91374172566062,41.23444432549319,0 28.91354759297279,41.23326159281395,0 28.91351859420663,41.23184849459303,0 28.91358235105287,41.23034617475511,0 28.91389858277439,41.22912209744691,0 28.9145970687211,41.22818053710198,0 28.9156138853841,41.22741520978552,0 28.91664882545821,41.22688134896973,0 28.91757708315446,41.22661342671833,0 28.91820187229122,41.22658283765859,0 28.91873613915493,41.22689838526123,0 28.91924084642003,41.22771309331618,0 28.9193021792568,41.22943517309325,0 28.91868860411957,41.23142135116166,0 28.9174980843751,41.23299475790055,0 28.91519265717583,41.23363828208041,0 28.91477240519346,41.23239572884832,0 28.91462039197668,41.23068446899291,0 28.91474365433784,41.22865530307034,0 28.91550931102064,41.22718030452576,0 28.91655718532724,41.2265371963823,0 28.91805274188522,41.22610578205167,0 28.91956192001654,41.22611202437034,0 28.92126034456133,41.22582768445464,0 28.92232382386313,41.22651333653969,0 28.92237133958787,41.22788335029212,0 28.92149365953857,41.22932933828692,0 28.91975820616498,41.22995397894475,0 28.91739004370395,41.23067742528218,0 28.91592176363254,41.2307474299121,0 28.9157008568935,41.22953761179173,0 28.91642976015829,41.22814389372169,0 28.91798256708491,41.22732813056274,0 28.91994995548842,41.22658889381204,0 28.92101043054033,41.22633797734831,0 28.92057712253943,41.2264619739407,0 28.91975189162173,41.22641237988876,0 
			</coordinates>
		</LineString>
		<atom:link rel="app" href="https://www.google.com/earth/about/versions/#earth-pro" title="Google Earth Pro 7.3.7.1155"></atom:link>
	</Placemark>
</Document>
</kml>
