<?xml version="1.0" encoding="UTF-8"?>
<kml xmlns="http://www.opengis.net/kml/2.2" xmlns:gx="http://www.google.com/kml/ext/2.2" xmlns:kml="http://www.opengis.net/kml/2.2" xmlns:atom="http://www.w3.org/2005/Atom">
<Document>
	<name>Adsız Yol.kml</name>
	<StyleMap id="m_ylw-pushpin">
		<Pair>
			<key>normal</key>
			<styleUrl>#s_ylw-pushpin</styleUrl>
		</Pair>
		<Pair>
			<key>highlight</key>
			<styleUrl>#s_ylw-pushpin_hl</styleUrl>
		</Pair>
	</StyleMap>
	<Style id="s_ylw-pushpin">
		<IconStyle>
			<scale>1.1</scale>
			<Icon>
				<href>http://maps.google.com/mapfiles/kml/pushpin/ylw-pushpin.png</href>
			</Icon>
			<hotSpot x="20" y="2" xunits="pixels" yunits="pixels"/>
		</IconStyle>
	</Style>
	<Style id="s_ylw-pushpin_hl">
		<IconStyle>
			<scale>1.3</scale>
			<Icon>
				<href>http://maps.google.com/mapfiles/kml/pushpin/ylw-pushpin.png</href>
			</Icon>
			<hotSpot x="20" y="2" xunits="pixels" yunits="pixels"/>
		</IconStyle>
	</Style>
	<Placemark>
		<name>Adsız Yol</name>
		<styleUrl>#m_ylw-pushpin</styleUrl>
		<LineString>
			<tessellate>1</tessellate>
			<coordinates>
				28.93579200344076,41.21739121926682,0 28.9358038051402,41.21686066448869,0 28.93582388914652,41.21606414992381,0 28.93584979753673,41.2152651878975,0 28.93581090686962,41.21410153010518,0 28.93580404500759,41.21279126185942,0 28.93631229420084,41.21148361949935,0 28.93681368307408,41.21110189380955,0 28.9373565925837,41.21109420129694,0 28.93815692816329,41.21112327685916,0 28.93911040500517,41.21129425589726,0 28.93998793584067,41.21155705172212,0 28.94107803795701,41.21193770120584,0 28.94240205743938,41.21255142347555,0 28.94327244478,41.21321082112293,0 28.94396767479132,41.21426322338044,0 28.94427898155291,41.2158598908137,0 28.94454257184416,41.21712694115753,0 28.94457748280195,41.21855106394531,0 28.94408050307552,41.21945419126082,0 28.94336331381851,41.2201200958368,0 28.94209159268377,41.22054131583298,0 28.94174246316843,41.22040886148999,0 28.94177703111952,41.21947208166451,0 28.94211537045345,41.21895339333465,0 28.94282426646138,41.21894814566291,0 28.94390503088298,41.21932372670517,0 28.94528525851876,41.21998930524734,0 28.94634829059611,41.22076757269589,0 28.94740727479618,41.22128384488093,0 28.9480490526175,41.2221084872784,0 28.94854851047554,41.22212428936432,0 28.94939440216623,41.22214146043039,0 28.95171506387996,41.22237401885857,0 28.95439344708505,41.22298701514234,0 28.9571562219382,41.22379685784523,0 28.95957172445918,41.2246080092204,0 28.96108045726805,41.22505689457096,0 28.96158099070021,41.225078706334,0 28.96124762070225,41.22453815245931,0 
			</coordinates>
		</LineString>
		<atom:link rel="app" href="https://www.google.com/earth/about/versions/#earth-pro" title="Google Earth Pro 7.3.7.1155"></atom:link>
	</Placemark>
</Document>
</kml>
