<?xml version="1.0" encoding="UTF-8"?>
<kml xmlns="http://www.opengis.net/kml/2.2" xmlns:gx="http://www.google.com/kml/ext/2.2" xmlns:kml="http://www.opengis.net/kml/2.2" xmlns:atom="http://www.w3.org/2005/Atom">
<Document>
	<name>Adsız Yol.kml</name>
	<StyleMap id="m_ylw-pushpin">
		<Pair>
			<key>normal</key>
			<styleUrl>#s_ylw-pushpin</styleUrl>
		</Pair>
		<Pair>
			<key>highlight</key>
			<styleUrl>#s_ylw-pushpin_hl</styleUrl>
		</Pair>
	</StyleMap>
	<Style id="s_ylw-pushpin">
		<IconStyle>
			<scale>1.1</scale>
			<Icon>
				<href>http://maps.google.com/mapfiles/kml/pushpin/ylw-pushpin.png</href>
			</Icon>
			<hotSpot x="20" y="2" xunits="pixels" yunits="pixels"/>
		</IconStyle>
	</Style>
	<Style id="s_ylw-pushpin_hl">
		<IconStyle>
			<scale>1.3</scale>
			<Icon>
				<href>http://maps.google.com/mapfiles/kml/pushpin/ylw-pushpin.png</href>
			</Icon>
			<hotSpot x="20" y="2" xunits="pixels" yunits="pixels"/>
		</IconStyle>
	</Style>
	<Placemark>
		<name>Adsız Yol</name>
		<styleUrl>#m_ylw-pushpin</styleUrl>
		<LineString>
			<tessellate>1</tessellate>
			<coordinates>
				28.94720886635828,41.173228118829,0 28.94771787238667,41.17190815942875,0 28.94926267779442,41.17058584088312,0 28.95156440973796,41.16966844428838,0 28.95520936355899,41.16874020692768,0 28.95841978072055,41.16849483577931,0 28.96108536535776,41.16850870245345,0 28.96383689407174,41.16928730186473,0 28.96586314815634,41.17037145042956,0 28.96689798309384,41.17155179322702,0 28.96725688921772,41.17273789494079,0 28.96701700746132,41.17390727116063,0 28.96586028684577,41.17497262141221,0 28.96336162572584,41.17575149158139,0 28.96106113855082,41.1758782287997,0 28.95748315969117,41.17586443025307,0 28.9540139373416,41.17560300128959,0 28.9504376495928,41.17442831831937,0 28.94790400718438,41.17283254806278,0 28.94621345244906,41.17126096208725,0 28.94617193115378,41.17046259303162,0 28.94715284275788,41.16978993626999,0 28.9490494840293,41.16952121524868,0 28.95382854333177,41.16966766084726,0 28.95714716333693,41.17032692933196,0 28.96104018050185,41.17165749312301,0 28.96460012421115,41.17378081932331,0 28.96639276056097,41.17563205240324,0 28.96639087315668,41.1766831295218,0 28.96547194461625,41.17799171407696,0 28.96336303111714,41.17864723355142,0 28.96073643563701,41.17877680502981,0 28.959463571401,41.17837621315729,0 28.95871629661348,41.17758073490645,0 28.95929847258372,41.17692818858936,0 28.95947190573412,41.17692759950003,0 28.96144784751833,41.17706802836661,0 28.96457847563356,41.17798910805217,0 28.9683036550105,41.17970661980149,0 28.97093538444888,41.18115468776239,0 28.97266791065432,41.18273241006357,0 28.97283858124052,41.18365266481742,0 28.97210665571122,41.18444224639038,0 28.96929964082387,41.18549378044131,0 28.96449165712775,41.18589187221787,0 28.9593069721583,41.18601504767875,0 28.95534284908872,41.18574605916989,0 28.95238947317437,41.18495479896158,0 28.95169097976136,41.18469119418894,0 28.95148773281393,41.18377072716779,0 28.95164708827704,41.18337616746226,0 28.95162951885942,41.18284955284617,0 
			</coordinates>
		</LineString>
		<atom:link rel="app" href="https://www.google.com/earth/about/versions/#earth-pro" title="Google Earth Pro 7.3.7.1155"></atom:link>
	</Placemark>
</Document>
</kml>
