<?xml version="1.0" encoding="UTF-8"?>
<kml xmlns="http://www.opengis.net/kml/2.2" xmlns:gx="http://www.google.com/kml/ext/2.2" xmlns:kml="http://www.opengis.net/kml/2.2" xmlns:atom="http://www.w3.org/2005/Atom">
<Document>
	<name>Adsız Yol.kml</name>
	<StyleMap id="m_ylw-pushpin">
		<Pair>
			<key>normal</key>
			<styleUrl>#s_ylw-pushpin</styleUrl>
		</Pair>
		<Pair>
			<key>highlight</key>
			<styleUrl>#s_ylw-pushpin_hl</styleUrl>
		</Pair>
	</StyleMap>
	<Style id="s_ylw-pushpin">
		<IconStyle>
			<scale>1.1</scale>
			<Icon>
				<href>http://maps.google.com/mapfiles/kml/pushpin/ylw-pushpin.png</href>
			</Icon>
			<hotSpot x="20" y="2" xunits="pixels" yunits="pixels"/>
		</IconStyle>
	</Style>
	<Style id="s_ylw-pushpin_hl">
		<IconStyle>
			<scale>1.3</scale>
			<Icon>
				<href>http://maps.google.com/mapfiles/kml/pushpin/ylw-pushpin.png</href>
			</Icon>
			<hotSpot x="20" y="2" xunits="pixels" yunits="pixels"/>
		</IconStyle>
	</Style>
	<Placemark>
		<name>Adsız Yol</name>
		<styleUrl>#m_ylw-pushpin</styleUrl>
		<LineString>
			<tessellate>1</tessellate>
			<coordinates>
				28.92796055428115,41.23543330053948,0 28.92845049081426,41.23403071150714,0 28.92902198802833,41.23268906308272,0 28.92934985661511,41.23138857674186,0 28.92980938525159,41.22961694189059,0 28.93035454672767,41.22855498995224,0 28.93085498737589,41.22791231327767,0 28.93174584069553,41.22737869545663,0 28.93305329690127,41.2269387957579,0 28.93457725775978,41.2269662302206,0 28.93721350437099,41.22709055434569,0 28.93940190714838,41.22779898042291,0 28.94405346486385,41.2298196828022,0 28.94573486365948,41.23079269877556,0 28.94705911958702,41.23243036551141,0 28.94760628522248,41.23373177015292,0 28.94780911238102,41.23476250623294,0 28.94739742318923,41.23598415982918,0 28.94651581870268,41.23690904193672,0 28.94528237264582,41.23770352588691,0 28.94382724512842,41.23814275269947,0 28.94225684472011,41.23826769651717,0 28.94006454165778,41.23807365330735,0 28.93757557195588,41.23730656260437,0 28.93486965252846,41.23539106838836,0 28.93363063702034,41.23357400369381,0 28.93254352424678,41.23149553370601,0 28.93321057052318,41.23046427754949,0 28.93725914227364,41.22927006473189,0 28.94671215999808,41.22874609726338,0 28.95218343456412,41.23068004362504,0 28.95263623240276,41.23391443739624,0 28.95240299794907,41.23528300533919,0 28.95178160834562,41.2360016816075,0 28.95104871913178,41.23642352290136,0 28.95020280667067,41.23639527725265,0 28.94891953870446,41.23629262320888,0 28.94756453296378,41.23599082275429,0 28.94612472678065,41.23575918349403,0 28.94524334989195,41.23550001232291,0 28.94420936877958,41.23482953131884,0 28.9435168364988,41.2340339265247,0 28.94315100107445,41.2333882358104,0 
			</coordinates>
		</LineString>
		<atom:link rel="app" href="https://www.google.com/earth/about/versions/#earth-pro" title="Google Earth Pro 7.3.7.1155"></atom:link>
	</Placemark>
</Document>
</kml>
