<?xml version="1.0" encoding="UTF-8"?>
<kml xmlns="http://www.opengis.net/kml/2.2" xmlns:gx="http://www.google.com/kml/ext/2.2" xmlns:kml="http://www.opengis.net/kml/2.2" xmlns:atom="http://www.w3.org/2005/Atom">
<Document>
	<name>Adsız Yol.kml</name>
	<StyleMap id="m_ylw-pushpin">
		<Pair>
			<key>normal</key>
			<styleUrl>#s_ylw-pushpin</styleUrl>
		</Pair>
		<Pair>
			<key>highlight</key>
			<styleUrl>#s_ylw-pushpin_hl</styleUrl>
		</Pair>
	</StyleMap>
	<Style id="s_ylw-pushpin">
		<IconStyle>
			<scale>1.1</scale>
			<Icon>
				<href>http://maps.google.com/mapfiles/kml/pushpin/ylw-pushpin.png</href>
			</Icon>
			<hotSpot x="20" y="2" xunits="pixels" yunits="pixels"/>
		</IconStyle>
	</Style>
	<Style id="s_ylw-pushpin_hl">
		<IconStyle>
			<scale>1.3</scale>
			<Icon>
				<href>http://maps.google.com/mapfiles/kml/pushpin/ylw-pushpin.png</href>
			</Icon>
			<hotSpot x="20" y="2" xunits="pixels" yunits="pixels"/>
		</IconStyle>
	</Style>
	<Placemark>
		<name>Adsız Yol</name>
		<styleUrl>#m_ylw-pushpin</styleUrl>
		<LineString>
			<tessellate>1</tessellate>
			<coordinates>
				28.98461106666794,41.22688841214758,0 28.98463256738229,41.22593056734036,0 28.98449251327815,41.22377059634548,0 28.98397683498451,41.22126061466517,0 28.98345678032659,41.21757872622095,0 28.98324870279546,41.21485953337744,0 28.98258915896625,41.2116596706867,0 28.98205939542336,41.21087714344785,0 28.98170578727751,41.210355934646,0 28.9815526223905,41.20941481026885,0 28.98297814432681,41.20938909710443,0 28.98615474567044,41.2097431786468,0 28.99048998045708,41.20990647712659,0 28.99533661072876,41.21010978268074,0 28.99851621942897,41.21003399533681,0 29.00269770946703,41.2100506617431,0 29.00601171518246,41.21006909579592,0 29.00827910404339,41.21010454585628,0 29.00985358632432,41.21026379197248,0 29.01072832548846,41.21146854479558,0 29.0114269402507,41.2136950998805,0 29.01142482623716,41.21618179939389,0 29.01142389050978,41.21841330089924,0 29.01054935508011,41.22083589549953,0 29.01002356575017,41.22266992025371,0 29.00914571079217,41.22413550207494,0 29.00826783887721,41.22521983567813,0 29.007389956666,41.22562964916123,0 29.00739052148096,41.22522682747258,0 29.00686444209824,41.22430663003838,0 29.00598616366228,41.22261567348404,0 29.00493635057418,41.2211441913955,0 29.00407081742641,41.21922749791615,0 29.00319814396232,41.21789579623298,0 29.00216587589155,41.21624227186591,0 29.0018210525889,41.21556874492024,0 29.00165122514156,41.21476670399412,0 29.00200450438034,41.21396277597211,0 29.00235261020444,41.21357219777207,0 29.00252497359001,41.21305710314077,0 29.00252615935184,41.21226766986559,0 29.00252764313749,41.2113452100974,0 29.00183021598904,41.21055239710843,0 29.00165536037075,41.21069357994883,0 29.00076831453323,41.21112927535262,0 28.99780086001232,41.2120435556556,0 28.99464602981852,41.2133730384236,0 28.99197610001533,41.21477302333116,0 28.98907024647247,41.21610506752088,0 28.98670600884357,41.2179506512873,0 28.98635656331046,41.21808012176866,0 28.98567605831095,41.21910530818519,0 28.9853066754206,41.22018382873905,0 28.98460587370414,41.2196560588085,0 
			</coordinates>
		</LineString>
		<atom:link rel="app" href="https://www.google.com/earth/about/versions/#earth-pro" title="Google Earth Pro 7.3.7.1155"></atom:link>
	</Placemark>
</Document>
</kml>
