<?xml version="1.0" encoding="UTF-8"?>
<kml xmlns="http://www.opengis.net/kml/2.2" xmlns:gx="http://www.google.com/kml/ext/2.2" xmlns:kml="http://www.opengis.net/kml/2.2" xmlns:atom="http://www.w3.org/2005/Atom">
<Document>
	<name>Adsız Yol.kml</name>
	<StyleMap id="m_ylw-pushpin">
		<Pair>
			<key>normal</key>
			<styleUrl>#s_ylw-pushpin</styleUrl>
		</Pair>
		<Pair>
			<key>highlight</key>
			<styleUrl>#s_ylw-pushpin_hl</styleUrl>
		</Pair>
	</StyleMap>
	<Style id="s_ylw-pushpin">
		<IconStyle>
			<scale>1.1</scale>
			<Icon>
				<href>http://maps.google.com/mapfiles/kml/pushpin/ylw-pushpin.png</href>
			</Icon>
			<hotSpot x="20" y="2" xunits="pixels" yunits="pixels"/>
		</IconStyle>
	</Style>
	<Style id="s_ylw-pushpin_hl">
		<IconStyle>
			<scale>1.3</scale>
			<Icon>
				<href>http://maps.google.com/mapfiles/kml/pushpin/ylw-pushpin.png</href>
			</Icon>
			<hotSpot x="20" y="2" xunits="pixels" yunits="pixels"/>
		</IconStyle>
	</Style>
	<Placemark>
		<name>Adsız Yol</name>
		<styleUrl>#m_ylw-pushpin</styleUrl>
		<LineString>
			<tessellate>1</tessellate>
			<coordinates>
				28.77894318385664,41.22940333518369,0 28.7790478570645,41.22905189039228,0 28.77921580391548,41.22868095166479,0 28.77929597788227,41.22850738634813,0 28.77943846612284,41.22828376832351,0 28.77981271310294,41.22762668490427,0 28.78003790412044,41.22721325313378,0 28.78025787565886,41.22681447006871,0 28.78034530634999,41.22657926232291,0 28.78054227648281,41.22635150030116,0 28.78081210947584,41.22596596534307,0 28.78101798141928,41.2256377242126,0 28.78111254139746,41.2253092074214,0 28.78118058677815,41.22520076805461,0 28.78139692820754,41.2247669514397,0 28.78141686136813,41.22460146734758,0 28.78168009984886,41.22422349806515,0 28.7817407731746,41.22417037720405,0 28.78229670399164,41.22410220151452,0 28.78295404358758,41.22409234104926,0 28.78370482027224,41.22421333695995,0 28.78548755505845,41.22448559858995,0 28.78607013782041,41.22476865478131,0 28.78622725596498,41.22488169292792,0 28.78660132522772,41.2250534914711,0 28.78785187334397,41.22540226374267,0 28.78839771846691,41.22557715946542,0 28.78861713565371,41.22563595221106,0 28.78894360296227,41.2258097313172,0 28.78943485771949,41.22609924740482,0 28.78987269236884,41.22643234931487,0 28.79025662802679,41.2268139294925,0 28.79036692459513,41.22692230107451,0 28.79058727753127,41.22719401900565,0 28.7909758285074,41.22764647145024,0 28.79142132138431,41.2284946584487,0 28.79147562395832,41.22886157311857,0 28.79146892223882,41.22958242219874,0 28.79146366789778,41.23010579549143,0 28.79146234128852,41.23023759734451,0 28.7913399789228,41.23076636716576,0 28.79121962959654,41.2310298976222,0 28.79103780600164,41.23142802769603,0 28.79085261905884,41.23181616935674,0 28.79073271798163,41.23192256355931,0 28.79037444565057,41.23204295906008,0 28.78983958937104,41.23208085942665,0 28.78977802267102,41.23215374140845,0 28.78899541071036,41.23232259345878,0 28.788590058539,41.23217406800272,0 28.78829423031284,41.2321569902707,0 28.78782145792686,41.23213085543091,0 28.78681655229739,41.23202310559234,0 28.78599570728705,41.23191696033572,0 28.78552583823708,41.23185476655359,0 28.7846949003222,41.23183295243797,0 28.78392224815334,41.23184829514838,0 28.78327271370327,41.23183651219507,0 28.78221038931975,41.23181856883648,0 28.78156568411923,41.23175614261426,0 28.78100881086082,41.23147942255897,0 28.78045421452762,41.2312421843403,0 28.77991857864943,41.23084847165548,0 28.77975997658569,41.23072002786006,0 28.77956347429491,41.23042131924344,0 28.77931125766571,41.23011991465463,0 28.77918665427253,41.22972008187927,0 28.77905510588172,41.22941509949337,0 28.77897583618889,41.22916487487157,0 28.77901642713786,41.22886842271219,0 28.77907227960049,41.22887361170036,0 28.77953047795181,41.22887778497672,0 28.77998499307355,41.22889518006272,0 28.78055851792612,41.22889900564504,0 28.78162043830459,41.22915148574292,0 28.78239327056244,41.22946525272645,0 28.78289419032541,41.22965476714012,0 28.78322927872038,41.22978153895406,0 28.78367557779124,41.22997194855237,0 28.78417582518939,41.23022994158963,0 28.78502517973095,41.23058273981856,0 28.7855897451029,41.23085241108801,0 28.78627676113528,41.23107980465495,0 28.78715792768167,41.23115692246,0 28.78774605683713,41.23119246156921,0 28.78803813283782,41.23124820255833,0 28.78832961186163,41.23131408408402,0 28.78873495041841,41.23150418168384,0 28.7894839371119,41.23200015300183,0 28.78996089005346,41.23199889484315,0 28.79043342635079,41.2320868608988,0 28.790552023011,41.2321266776364,0 28.79008050980556,41.23191306845624,0 28.789503469788,41.23144972879576,0 28.78880559763145,41.23118640307422,0 28.78765321627975,41.23068544998513,0 28.78679309061991,41.23034169303538,0 28.78616999186418,41.23004073637983,0 28.78544408749079,41.22961496321598,0 28.78466141923374,41.22925636659931,0 28.78387519019383,41.22901328020472,0 28.78315315017292,41.22875824491044,0 28.78298756832692,41.22869496010781,0 28.78254921342073,41.22850662152636,0 28.78216320640032,41.22837954433813,0 28.78177905450802,41.22824969094388,0 28.78151537657058,41.22806669628446,0 28.78125924873033,41.22782715166351,0 28.78105419376676,41.22764693418735,0 28.78091366037687,41.22740904205391,0 28.78077383974648,41.22717236664935,0 28.7805380440627,41.22681728020557,0 28.78081843281364,41.2268193225663,0 28.78141365717248,41.22700257809527,0 28.78310736943981,41.22749569540502,0 28.7843136661709,41.22793046111155,0 28.78515036355789,41.22816009171249,0 28.78564110450789,41.22846731826902,0 28.78624604803536,41.22883740491937,0 28.78669217121977,41.2290725385986,0 28.78730692143445,41.22946582677987,0 28.78769979249963,41.2297421283254,0 28.78781267465637,41.22980467640722,0 28.78810035962975,41.22986194091229,0 28.78844096155044,41.23004623378088,0 28.78861314384976,41.23010537539778,0 28.78901476429996,41.23027854057806,0 28.78947521032758,41.2304657666953,0 28.78970329694799,41.23065719452315,0 28.78941264338851,41.23059647766188,0 28.78895882784645,41.230214866751,0 28.78844918963094,41.22985300428272,0 28.78766410517763,41.22927032910952,0 28.78699359358992,41.22883230003585,0 28.78605801022909,41.2282259208892,0 28.7854009046531,41.22786083209945,0 28.78479417938294,41.22762717151844,0 28.78430028532759,41.22744400663181,0 28.78381204810393,41.22721129098291,0 28.78332447603184,41.22698790053274,0 28.78257141442468,41.22664510843119,0 28.78213777833517,41.22648707669232,0 28.78182458659533,41.22626973686342,0 28.7814692487521,41.2259755568234,0 28.78127594856326,41.22574041076309,0 28.78136003457076,41.22550968041795,0 28.78169171649107,41.22551348254179,0 28.78246192386123,41.22556993606982,0 28.78345596914871,41.2256229555015,0 28.78488241912251,41.22580917729415,0 28.78658159542589,41.22621129766239,0 28.78696375891904,41.22637514200566,0 28.78712267819478,41.2265414886911,0 28.7873416946757,41.22664868524781,0 28.78761666880722,41.2267619814869,0 28.78788922648828,41.22693616665788,0 28.78811160825405,41.22699574509411,0 28.78838819375823,41.22711336621774,0 28.78872632873592,41.22711690700572,0 28.78928814226924,41.22718027018911,0 28.78956675305598,41.22729914205966,0 28.7896215427559,41.22735766796158,0 28.7898992746196,41.22747671399412,0 28.79023480948698,41.22769537051972,0 28.79063017732672,41.22791074426171,0 28.79108109466175,41.22820729415865,0 28.79136094426202,41.22869880434101,0 28.79147385191553,41.22891861848773,0 28.79147280148033,41.22903069638084,0 28.7914716949019,41.22928279026773,0 28.79124113840615,41.22928847555751,0 28.79089520041676,41.22929675114278,0 28.79060930051186,41.22917600670418,0 28.79026769320604,41.22900056180923,0 28.78986953669103,41.22883346285975,0 28.78941707331526,41.22860885914665,0 28.78873246665256,41.22848485889966,0 28.78816863235159,41.22830339291425,0 28.78772064897827,41.228125294417,0 28.78744184086468,41.2280073730126,0 28.78699564590779,41.22783758216465,0 28.78666805311238,41.22760925315367,0 28.78639484880299,41.22744025598099,0 28.78606303189378,41.22732453619713,0 28.78567607526644,41.22720560472398,0 28.78546307831726,41.22703186763226,0 28.78508220797112,41.22685837256591,0 28.78486652405045,41.22674301811394,0 28.78459525613946,41.2266280147205,0 28.78420750260834,41.22657091255128,0 28.78376917730524,41.22645801763532,0 28.78350534484031,41.2262874537913,0 28.78323669825581,41.22617509130043,0 28.783040262756,41.22589894738147,0 28.78294547386743,41.22573265663566,0 28.78279958430867,41.22551852067169,0 28.78275651647689,41.22540361574157,0 28.7825120501319,41.22511470551134,0 28.78231763491558,41.22488493567519,0 28.78221939815671,41.22477595086647,0 28.78200989832579,41.22467341928123,0 28.78169813824174,41.22451376079952,0 28.78186980814175,41.22445597547302,0 28.7820917925348,41.22444558480889,0 28.78241165760371,41.2245431818242,0 28.78293536887033,41.22477172948412,0 28.78340672136226,41.22500138261835,0 28.78383088910737,41.22517453109285,0 28.78414572795307,41.22534991560066,0 28.78457295621321,41.22552500324651,0 28.785002508648,41.22569741542634,0 28.7856046374431,41.22581546271141,0 28.78626837895545,41.2258734752715,0 28.78692988107214,41.22598677806445,0 28.78715274968358,41.22598769424818,0 28.78736974460044,41.22610012778964,0 28.78770421679722,41.22610373948299,0 28.78814890361241,41.22615339942136,0 28.7884260827579,41.22620627627003,0 28.78870322452526,41.22626281369653,0 28.7890385476611,41.22626388824581,0 28.78926028296865,41.22632055765395,0 28.78953666608441,41.22643232783159,0 28.79004065908845,41.22643302210405,0 28.79015135957875,41.22648912929828,0 28.78987412961117,41.22637675545388,0 28.78959871560133,41.22621550008623,0 28.78932527215271,41.22604027361357,0 28.78866661422457,41.22576537090843,0 28.7880047325934,41.22565119490499,0 28.78646397443916,41.22542583705856,0 28.7858087474723,41.22530344647561,0 28.78498505684459,41.22523794027424,0 28.78470911151829,41.22523547073985,0 28.78383088910737,41.22517453109285,0 28.78322943517126,41.22511594471508,0 28.78290452174803,41.22505791240606,0 28.78246982070696,41.22499976520709,0 28.78224918166059,41.22500018750944,0 28.78228472689841,41.22517185736501,0 28.78241779767317,41.22546095067649,0 28.78282839447598,41.22578954809057,0 28.78318614529839,41.22611978779683,0 28.78435089837847,41.22685924249243,0 28.78553186688604,41.22762453183881,0 28.78651042658737,41.22828928119797,0 28.78739434909776,41.22887691751585,0 28.78784315623813,41.22914634042919,0 28.78829383009214,41.22941959544627,0 28.78869179179713,41.22959378802764,0 28.78897696821092,41.2297123871185,0 28.78892125594639,41.22965108705903,0 28.78846257592591,41.22953655127027,0 28.78749556223465,41.22916414931677,0 28.78647939767453,41.22877856396175,0 28.78504516391371,41.22804330321917,0 28.78330213871284,41.2272195111781,0 28.78259623272504,41.22693838015234,0 28.78216408225083,41.22676755354195,0 28.78189175769381,41.22666905056462,0 28.78240250173141,41.22664727509552,0 28.78312241710265,41.22675523021316,0 28.7847868522939,41.22703228254176,0 28.78512048329167,41.22708999341692,0 28.78662505283904,41.22738023674216,0 28.78768415175806,41.22768032500448,0 28.78840942116352,41.22797440357022,0 28.78879733727961,41.22826226451375,0 28.78879733727961,41.22826226451375,0 28.78857569077648,41.22808961330956,0 28.78807805478201,41.2277447945289,0 28.78718927401504,41.22739051413654,0 28.78608532377272,41.22698339765329,0 28.78495425046439,41.22634432742851,0 28.78469736484437,41.226064026307,0 28.78529657439173,41.22620964096282,0 28.78705499607044,41.22675996572423,0 28.78804750417886,41.22716726329903,0 28.7888803691033,41.22752550984007,0 28.7897761747786,41.22802421777941,0 28.79050590162473,41.22857658982447,0 28.79089931535275,41.22904302537723,0 28.79118099540089,41.22948099980887,0 28.79146345001231,41.23011755044879,0 28.79157631391334,41.23051034201824,0 28.79145681027246,41.23078005422195,0 28.79122510972277,41.23057897905724,0 28.79087957433193,41.23026083536099,0 28.79002329599002,41.22957103583741,0 28.78945981926312,41.22908721387994,0 28.78889737708397,41.22869865635857,0 28.78856536596829,41.22836873409053,0 28.78829142995917,41.22808295026798,0 28.78779734108476,41.2276829543348,0 28.78785149599104,41.22773952208691,0 28.78840081180613,41.22819706776956,0 28.78884280279672,41.22859989848005,0 28.78957685679702,41.22902321715922,0 28.79014216505127,41.22944065827421,0 28.79054019522751,41.22975190422416,0 28.79076640586635,41.23006910466224,0 28.79000878695219,41.23014326955587,0 28.78925398343482,41.23009050461546,0 28.78827476841547,41.22985813513572,0 28.78713173964737,41.22948070279173,0 28.78583966059788,41.22889809591064,0 28.78458315588038,41.22811024923013,0 28.78392473773764,41.22781832948738,0 28.78343588585952,41.22758132537611,0 28.78289291790832,41.22734565286046,0 28.78267221942753,41.22728951357279,0 28.78314426538553,41.22765090052442,0 28.78361556848398,41.22806973368315,0 28.78431433457211,41.22858905434087,0 28.7844716983029,41.22876715158738,0 28.78474836883808,41.22889187609906,0 28.78506962592074,41.2291978647111,0 28.7852832170998,41.22943577630868,0 28.78494092478423,41.2293756470637,0 28.7843153845235,41.22925531144939,0 28.78346951971354,41.22902671301115,0 28.78199539584933,41.2282991796659,0 28.7818946938836,41.22817853073979,0 28.78151751342631,41.2279933494575,0 28.7811674799373,41.22758277472627,0 28.78113154652671,41.2274080314656,0 28.78151977480746,41.22747126697242,0 28.78210912828641,41.22777200211943,0 28.78304524405532,41.22807103363125,0 28.78464375151096,41.22876813170834,0 28.78552676503458,41.22925799232646,0 28.78675022817464,41.23005231029247,0 28.78795518006708,41.23048993237434,0 28.78835330295388,41.23074414219469,0 28.78812751511124,41.23055390129614,0 28.78789972316121,41.2304269145157,0 28.78790262078546,41.23036440953139,0 28.78698539748538,41.23003209768638,0 28.78669835025482,41.22993642457971,0 28.78500312083882,41.229316350914,0 28.78400021784782,41.22889633896072,0 28.7832903536923,41.22848824439163,0 28.78298829172195,41.228070789636,0 28.78251264848011,41.2277149425995,0 28.78226040502089,41.22742104968762,0 28.78194785399156,41.22718304126654,0 28.78158758579474,41.22688705052176,0 28.78117857519867,41.22657459795671,0 28.78113012230761,41.22651469511883,0 28.78129428430151,41.22699586892858,0 28.78152629546567,41.22741368080356,0 28.78185720912374,41.22800146228055,0 28.78225448074153,41.22854310021503,0 28.78301918309387,41.22951258165556,0 28.7830476879795,41.22981763150872,0 28.78261446355696,41.22951080314657,0 28.78207155718229,41.22919333254286,0 28.78122299620376,41.22857674380664,0 28.78063757804519,41.22821702577117,0 28.78022661741976,41.22786197900238,0 28.78022661741976,41.22786197900238,0 28.7804884985328,41.22803982620647,0 28.78112927059359,41.2283988656517,0 28.7819889287383,41.22889172498336,0 28.78320450024837,41.22939039138414,0 28.78482869113677,41.23009399875536,0 28.78703431931171,41.23124168131045,0 28.78712133710804,41.23171604073507,0 28.78642736795508,41.23148171506445,0 28.7854477763566,41.23118285638024,0 28.78413508690754,41.23072027544724,0 28.78281939326303,41.23027054136082,0 28.78212733105974,41.22974739248864,0 28.78175728655932,41.22943238839022,0 28.78154806352762,41.22924415363646,0 28.78118136094035,41.22893489432821,0 28.78113106602068,41.22887419950252,0 28.78156233452149,41.22912061187092,0 28.78266602364426,41.22957255092011,0 28.78288541203432,41.22969583414984,0 28.78418439739491,41.23011637115758,0 28.78527260721966,41.23039733947537,0 28.78647130147346,41.23080627132256,0 28.78687682973406,41.23091430736379,0 28.78704317403777,41.2310983225327,0 28.78725238185977,41.2315342809547,0 28.78730336728551,41.231641426226,0 28.78682862350423,41.23165119671678,0 28.78632090890208,41.23132539562769,0 28.7854730602299,41.23084826253577,0 28.78429185354809,41.23023274297783,0 28.78362286743548,41.22987812969603,0 28.78312335139529,41.22963403596038,0 28.78267831198507,41.22945060296129,0 28.78224959984652,41.22913872034211,0 28.78213511545071,41.22913527429968,0 28.78244814163939,41.22944539206433,0 28.7828613476667,41.2299409114033,0 28.78401187656151,41.23078636677253,0 28.78467384207506,41.23126719610617,0 28.78395874843756,41.23072328257864,0 28.78300085394795,41.23030714589056,0 28.7817729534759,41.2298069686938,0 28.7807111992884,41.22948592566564,0 28.78000061726543,41.2292073019373,0 28.77982811884876,41.22920572135417,0 28.78041664641025,41.22953847201,0 28.78154360910066,41.23030091039683,0 28.78219541766532,41.23071583655609,0 28.78280516900556,41.23105044299553,0 28.78289871877513,41.2313351809303,0 28.78254730932813,41.2313235620162,0 28.78173154813015,41.2312474532873,0 28.7809965010376,41.23098925874952,0 28.78044403981097,41.23072163612439,0 28.78001286602728,41.23045104022668,0 28.77985590433927,41.2303187860021,0 28.78044403981097,41.23072163612439,0 28.78104774526856,41.23105311113691,0 28.7819425415156,41.23149058310007,0 28.78239532724579,41.23171719036835,0 28.78245910388535,41.23166197022227,0 28.78217973464607,41.23148644083115,0 28.78164202891491,41.23099266541435,0 28.78083771447502,41.23035677067401,0 28.77982548022242,41.22964845537486,0 28.77923476291548,41.22932780210776,0 28.77884321063318,41.22887152298728,0 28.77842982907028,41.22859771686383,0 28.7780972586719,41.22819744145808,0 28.77805076886177,41.22813367906627,0 28.77829157605448,41.22839748095887,0 28.77852235286379,41.22873173413145,0 28.77887100479549,41.22906561190684,0 28.7791198070156,41.22932616091616,0 28.77944700150284,41.22945738172069,0 28.77972244390161,41.22913951405604,0 28.77988306557395,41.22878447438126,0 28.78005244868529,41.22833224974497,0 28.78033671126586,41.22744880114408,0 28.78039107372392,41.22703372229473,0 28.78046024071705,41.22650551943067,0 28.78065779535608,41.22582671789599,0 28.78076716958373,41.22538749966329,0 28.78083253560923,41.22487941842336,0 28.78083288218394,41.22444055204721,0 28.78059967670361,41.22498473281337,0 28.78030140726958,41.22558996215641,0 28.78000448345616,41.22615369754035,0 28.77971477152767,41.22665701589046,0 28.77941744471454,41.2271803165123,0 28.77947623244321,41.22676630453362,0 28.77986870901673,41.22592363257573,0 28.78067539260849,41.22482092686408,0 28.78081917020958,41.22454958219171,0 28.78095534566269,41.22433410638305,0 28.78113851303858,41.2241748862771,0 28.78107834915636,41.22466475685354,0 28.78071281193351,41.22582884356432,0 28.78039690622868,41.22656260701226,0 28.78005562217009,41.22744209092841,0 28.77973662632538,41.22814290371478,0 28.77950508121098,41.22863894140736,0 28.77921510917176,41.22906973703579,0 28.77901439698617,41.22926026561252,0 28.77911981684657,41.22893888654739,0 28.77942938494605,41.22834643810874,0 28.77973388743241,41.22773328383388,0 28.78018292293979,41.2269105447419,0 28.78061167621309,41.22620903250089,0 28.78083571168803,41.22572476794599,0 28.7810431202422,41.2253906571061,0 28.78130525369992,41.22505537202801,0 28.78164715624921,41.22495225679008,0 28.78203250757774,41.22495394693416,0 28.78253778459748,41.22488531431915,0 28.78303313662516,41.22488616822104,0 28.78340672136226,41.22500138261835,0 28.78381969128814,41.22528983447044,0 28.78445739960337,41.22558016127853,0 28.7851424014805,41.22603802617261,0 28.78573239052865,41.22637475228123,0 28.78611032661504,41.22659393672839,0 28.78633434871261,41.2265964262814,0 28.78563179854942,41.226210151356,0 28.78493341867258,41.22586612846109,0 28.78413527216931,41.22546393168529,0 28.78346182908876,41.22500147730478,0 28.78289275454048,41.22465768474795,0 28.78254684897883,41.2243169465642,0 28.78302687030192,41.22443085304568,0 28.78372146449582,41.22460399880815,0 28.78482951069661,41.22512052639492,0 28.78616049604443,41.22581915979273,0 28.78735262719007,41.22643097426949,0 28.78822165929766,41.22705422409238,0 28.78887602397447,41.22764272758523,0 28.78931638522979,41.22808981431714,0 28.78937261511904,41.22813294323345,0 28.789089353789,41.22804594611794,0 28.78852924916078,41.2278106787946,0 28.78791549174935,41.2275737842529,0 28.78735875062527,41.22739232122896,0 28.78714568523012,41.22715780024988,0 28.78737412547924,41.22710274202463,0 28.78799377531654,41.22710923477761,0 28.78872190107772,41.22723193907272,0 28.78927666374391,41.22752974016187,0 28.78972574261082,41.22772674550362,0 28.79012089932567,41.22779817188041,0 28.78989650476942,41.22762068204779,0 28.7896215427559,41.22735766796158,0 28.78901018207522,41.22706246967137,0 28.78834886286814,41.22671260642039,0 28.78780109577811,41.22642727265242,0 28.78823912823958,41.2266545513863,0 28.78906851018354,41.22700573898437,0 28.78995267639031,41.22763063880989,0 28.79074006834001,41.2281738638875,0 28.79107640986526,41.2285586435009,0 28.7910759957956,41.22860506132578,0 28.79096320622316,41.22851835374891,0 28.79040298475389,41.22793720470098,0 28.79000807417563,41.22775173841202,0 28.7900070122556,41.22790003656112,0 28.789996280034,41.22835407368005,0 28.789920832628,41.22907211252158,0 28.78978674953783,41.2297614683992,0 28.7896463269912,41.23059966891005,0 28.78945635897488,41.23106173801776,0 28.78943041992841,41.231840284426,0 28.78942552003358,41.23198444783375,0 28.78966957435238,41.23173688754048,0 28.79022501269498,41.23085645173918,0 28.79082347465544,41.2301325453035,0 28.79129653422904,41.22947813913764,0 28.79164478305522,41.2292287565441,0 28.79146854999347,41.22960166063821,0 28.79128972318095,41.23005632292965,0 28.79099124489029,41.23058388295847,0 28.79067766962831,41.23156800298233,0 28.79025293140972,41.23220332127229,0 28.78988410930784,41.23277061231802,0 28.78957284439145,41.23322214989972,0 28.78932458581684,41.23348762766265,0 28.7893937611802,41.23317159635736,0 28.78971074308264,41.23239290508065,0 28.79015327255371,41.23132951653444,0 28.79082456259174,41.23006780980534,0 28.79129803246737,41.22935065953155,0 28.791587419713,41.22915225146041,0 28.79141272390802,41.22941149936317,0 28.79094289078633,41.22993585147765,0 28.79034802301968,41.2305942163068,0 28.78998735146372,41.23098473598998,0 28.78968384166854,41.23132446878046,0 28.78932243610535,41.23157715925746,0 28.78920685162203,41.23150794068915,0 28.78891400495311,41.23144360280052,0 28.78838848116472,41.23131453010222,0 28.78798791893216,41.23105729817284,0 28.78765321627975,41.23068544998513,0 28.78726523537123,41.23026085175429,0 28.78698539748538,41.23003209768638,0 28.78664308760946,41.22988109035895,0 28.78636583555394,41.22968423654364,0 28.78634195899639,41.23005962116199,0 28.78677002715885,41.23072811613309,0 28.78720798422956,41.23130224879014,0 28.78788465120082,41.23198927505556,0 28.78845587233595,41.23256055441625,0 28.78898158415353,41.2328897151344,0 28.78868713212956,41.23272415992577,0 28.78834110063946,41.2324726335471,0 28.78764331840037,41.23213071896085,0 28.78699599160426,41.23194347497744,0 28.78635938890787,41.231684937372,0 28.78584918974055,41.2313589038354,0 28.78529290573747,41.23090874883346,0 28.78502078472943,41.23064307657579,0 28.78490802483912,41.23058376666091,0 28.78569669700008,41.23099014147021,0 28.78666508834375,41.23143654598153,0 28.7876528685048,41.23176561738865,0 28.78859920021623,41.23195823071359,0 28.78923228449273,41.23237995600816,0 28.78970718272167,41.23262581424387,0 28.78952569258541,41.23273383439297,0 28.78904362235828,41.23282462892137,0 28.78850568247978,41.23281799547564,0 28.78791237413978,41.23276498717626,0 28.78727001828627,41.23252398674105,0 28.78651107912995,41.23226344130637,0 28.78551731269201,41.23198044871997,0 28.78445956454506,41.23179010343917,0 28.78352770765281,41.23150609732619,0 28.78296954071786,41.23117661260073,0 28.78329851011276,41.2314352713511,0 28.78399080710232,41.23169521328347,0 28.784986270818,41.23196371209889,0 28.78607940842137,41.23254929294777,0 28.78676537477028,41.23306746393146,0 28.78710397792975,41.23342748439546,0 28.7873954126351,41.23358496005061,0 28.78710397792975,41.23342748439546,0 28.78635404032583,41.23297093001337,0 28.78560651564488,41.23248945035613,0 28.78463095655694,41.23192899021446,0 28.78347157310576,41.23145671469114,0 28.78307648673086,41.23129747832894,0 28.78279170521927,41.23121550635052,0 28.78274194858788,41.23110485359685,0 28.7833073297081,41.23132321993077,0 28.78393784818207,41.23155969622623,0 28.78487092716698,41.23187682743959,0 28.78545057771752,41.23213238183636,0 28.78537980142062,41.23231058800415,0 28.78484649053277,41.23226606174264,0 28.78431639316193,41.2321701771202,0 28.78362164722669,41.23190462803096,0 28.78287223766326,41.23166597375445,0 28.78167978877621,41.23118320641364,0 28.78101147591714,41.23086228266058,0 28.78025959768165,41.23033583430212,0 28.779961788037,41.22994836855428,0 28.77964575206263,41.22970219210883,0 28.77959517250435,41.22964357978199,0 28.78011038218207,41.23014169597263,0 28.78083561813302,41.23086157720738,0 28.78198060506313,41.23171935849653,0 28.7832332897669,41.23237714038581,0 28.78467128436909,41.23302210849646,0 28.78572955390463,41.23340075588153,0 28.78641670325865,41.23391304899931,0 28.78659184177526,41.23399816829077,0 28.78612700419861,41.23374929568129,0 28.7851783007818,41.23354179947698,0 28.78382528165133,41.23316701362003,0 28.78308296858124,41.23277426670434,0 28.78223532688233,41.23228096570834,0 28.78145247798149,41.23170069941056,0 28.78074233735928,41.23119849870584,0 28.78010497889253,41.23067545113054,0 28.77953102577248,41.23016482232407,0 28.77933626357138,41.2298686129033,0 28.7799123925534,41.22988410750455,0 28.78156448959281,41.23011463153045,0 28.78418691070018,41.23079089018836,0 28.7845396448829,41.23078556172523,0 28.78631203058458,41.23149383009503,0 28.78729015330404,41.23203411238739,0 28.78826604436261,41.23285562114889,0 28.78854854544847,41.23326912872914,0 28.78860097544382,41.23347085792167,0 28.7878413540662,41.23302025039715,0 28.786502836144,41.23242999101984,0 28.78418994898542,41.23137084744106,0 28.78413721360692,41.23130221393298,0 28.78338225071128,41.23060947056285,0 28.78307733573151,41.23011996610712,0 28.78353343432005,41.2302360554645,0 28.78450243916302,41.23052843067457,0 28.78603964603043,41.23112645935942,0 28.78776937518512,41.23185387406466,0 28.78788465120082,41.23198927505556,0 28.78723325893145,41.23194364606552,0 28.78630312680381,41.23166275494173,0 28.78503638736333,41.23117860282552,0 28.78380989203359,41.23041490872899,0 28.78267216747225,41.22951153902383,0 28.78205864632213,41.22877467766033,0 28.78165506133795,41.2282891093995,0 28.78153716376403,41.22781890902139,0 28.78160034175667,41.22776155217273,0 28.78193908463022,41.22777023387904,0 28.78244356548711,41.22783228776106,0 28.78333002176131,41.22807225760046,0 28.78361006085657,41.22812927425869,0 28.78533667898546,41.22871061584707,0 28.78645341144728,41.22920045243533,0 28.78702139731926,41.22937109958979,0 28.7865329124069,41.22884041315631,0 28.78573765506184,41.22792124389605,0 28.78496048493035,41.22697441371754,0 28.78414614518168,41.22599997537056,0 28.78332797621968,41.22523128641945,0 28.78299033539779,41.22477182533105,0 28.78339499140206,41.22511623249282,0 28.78469343301841,41.22611661953676,0 28.78490283185152,41.22628767268905,0 28.78505727222491,41.22645784230599,0 28.78607513582444,41.22714745408075,0 28.78677838117161,41.22766467542532,0 28.78721369047811,41.22801110911284,0 28.78748990871346,41.22818207132087,0 28.78681624318963,41.22797110163501,0 28.78614371578553,41.22780290860741,0 28.78542721987696,41.22750652448082,0 28.78483397841585,41.22714767212747,0 28.7841360710162,41.22674403967623,0 
			</coordinates>
		</LineString>
		<atom:link rel="app" href="https://www.google.com/earth/about/versions/#earth-pro" title="Google Earth Pro 7.3.7.1155"></atom:link>
	</Placemark>
</Document>
</kml>
